STARLINK-2022           
1 47643U 21012Z   24008.16745607  .00003409  00000+0  24758-3 0  9994
2 47643  53.0551   4.9006 0001392  96.8409 263.2738 15.06410177160443
